STARLINK-3844           
1 52705U 22053BB  22219.16667824 -.01055534  00000+0 -22705-1 0  9998
2 52705  53.2175 259.5774 0001641  46.6404 146.5205 15.46949881 13012
STARLINK-3970           
1 52706U 22053BC  22219.50001157 -.01054671  00000+0 -23534-1 0  9990
2 52706  53.2175 257.9809 0001289  76.6939 170.7520 15.45894740 13064
STARLINK-4007           
1 52707U 22053BD  22219.50001157 -.01055210  00000+0 -22897-1 0  9992
2 52707  53.2175 258.0139 0001397  58.8955 195.6534 15.46700492 13065
STARLINK-3962           
1 52708U 22053BE  22219.50001157 -.01061678  00000+0 -20916-1 0  9998
2 52708  53.2176 258.1330 0001275  59.6515 203.6399 15.49465875 13062
STARLINK-4091           
1 52830U 22062A   22219.58334491 -.01122203  00000+0 -47510-1 0  9993
2 52830  53.2174 155.8759 0001187  68.4271 332.3938 15.25811468  8502
STARLINK-4089           
1 52831U 22062B   22218.91667824 -.01121400  00000+0 -46515-1 0  9991
2 52831  53.2176 158.9354 0001286  70.7426 229.5379 15.26481091  1301
STARLINK-4083           
1 52832U 22062C   22218.91667824 -.01121992  00000+0 -46099-1 0  9995
2 52832  53.2176 158.9424 0001442  51.4408 260.5345 15.26793522  1303
STARLINK-4086           
1 52833U 22062D   22219.58334491 -.01122503  00000+0 -47974-1 0  9993
2 52833  53.2174 155.8695 0001331  52.4129 336.2548 15.25499546  7991
STARLINK-4108           
1 52834U 22062E   22219.58334491 -.01122061  00000+0 -47055-1 0  9993
2 52834  53.2174 155.8824 0001224  64.9776 347.8511 15.26123458  7998
STARLINK-4080           
1 52835U 22062F   22219.58334491 -.01121891  00000+0 -46602-1 0  9991
2 52835  53.2174 155.8890 0001294  59.2305   5.4602 15.26435432  7990
STARLINK-4043           
1 52836U 22062G   22219.58334491 -.01121728  00000+0 -46152-1 0  9991
2 52836  53.2175 155.8951 0001448  49.2877  27.1196 15.26747407  7991
STARLINK-4036           
1 52837U 22062H   22218.91667824 -.01123867  00000+0 -43202-1 0  9996
2 52837  53.2175 158.9900 0001441  47.5865 342.5901 15.28965187  1307
STARLINK-4092           
1 52838U 22062J   22219.58334491 -.01121385  00000+0 -45820-1 0  9993
2 52838  53.2175 155.8996 0001185  93.2059 351.8747 15.26974664  8482
STARLINK-4048           
1 52839U 22062K   22219.58334491 -.01121122  00000+0 -44411-1 0  9998
2 52839  53.2175 155.9188 0001685  42.4705  79.7406 15.27981728  8484
STARLINK-4049           
1 52840U 22062L   22219.58334491 -.01121319  00000+0 -44850-1 0  9995
2 52840  53.2175 155.9128 0001404  57.6030  53.4674 15.27669776  8480
STARLINK-4065           
1 52841U 22062M   22219.58334491 -.01121232  00000+0 -43152-1 0  9994
2 52841  53.2175 155.9359 0001643  47.2330 107.5269 15.28918143  8498
STARLINK-4046           
1 52842U 22062N   22219.58334491 -.01121525  00000+0 -45724-1 0  9997
2 52842  53.2175 155.9007 0001488  48.4183  39.9339 15.27045668  8482
STARLINK-4188           
1 52843U 22062P   22219.58334491 -.01121646  00000+0 -42343-1 0  9996
2 52843  53.2176 155.9468 0001557  53.4602 122.2711 15.29542611  8497
STARLINK-4208           
1 52844U 22062Q   22219.58334491 -.01121141  00000+0 -43988-1 0  9993
2 52844  53.2175 155.9245 0001607  47.2657  85.9406 15.28293863  8483
STARLINK-4168           
1 52845U 22062R   22219.25001157 -.01118233  00000+0 -40870-1 0  9993
2 52845  53.2176 157.4948 0001827  40.5826 105.6549 15.30570582  8432
STARLINK-4212           
1 52846U 22062S   22219.48796851 -.00540900  00000+0 -19237-1 0  9993
2 52846  53.2179 156.3573 0000595 274.3103  85.7831 15.30822309  8477
STARLINK-4206           
1 52847U 22062T   22219.48254440 -.00372377  00000+0 -12555-1 0  9994
2 52847  53.2200 156.3983 0001316 100.9420 259.1730 15.31801983  8477
STARLINK-4202           
1 52848U 22062U   22219.49188488 -.00522011  00000+0 -18763-1 0  9993
2 52848  53.2185 156.3366 0001304  94.0805 266.0346 15.30397643  8474
STARLINK-4197           
1 52849U 22062V   22219.58334491 -.01066085  00000+0 -10029-1 0  9993
2 52849  53.2174 152.1893 0004346 316.5601 182.0490 15.69132837  8535
STARLINK-4187           
1 52850U 22062W   22219.58334491 -.01121968  00000+0 -41966-1 0  9991
2 52850  53.2176 155.9514 0001468  60.9633 125.4665 15.29841195  8497
STARLINK-3809           
1 52851U 22062X   22218.91667824 -.01056132  00000+0 -93143-2 0  9992
2 52851  53.2174 155.4806 0003798   1.0946 328.2619 15.70653257  1307
STARLINK-4184           
1 52852U 22062Y   22219.58334491 -.01063986  00000+0 -10024-1 0  9999
2 52852  53.2174 152.1873 0001445 334.1119 163.8579 15.69125767  8533
STARLINK-4189           
1 52853U 22062Z   22218.91667824 -.01056075  00000+0 -93101-2 0  9994
2 52853  53.2175 155.4822 0003431   3.8827 326.7194 15.70667125  1300
STARLINK-4204           
1 52854U 22062AA  22218.91667824 -.01056065  00000+0 -93130-2 0  9996
2 52854  53.2174 155.4811 0003373   4.3714 325.6079 15.70660218  1300
STARLINK-4209           
1 52855U 22062AB  22219.58334491 -.01061108  00000+0 -99747-2 0  9996
2 52855  53.2175 152.1968 0001385 350.0222 152.4205 15.69172271  8539
STARLINK-4201           
1 52856U 22062AC  22218.91667824 -.01056049  00000+0 -93079-2 0  9992
2 52856  53.2175 155.4827 0003269   5.2342 325.9906 15.70674059  1301
STARLINK-4199           
1 52857U 22062AD  22219.58334491 -.01064067  00000+0 -99853-2 0  9993
2 52857  53.2175 152.2002 0004367 322.2985 181.4211 15.69186751  8538
STARLINK-4198           
1 52858U 22062AE  22218.91667824 -.01056025  00000+0 -93054-2 0  9991
2 52858  53.2175 155.4831 0003177   6.0454 325.8021 15.70680923  1303
STARLINK-4196           
1 52859U 22062AF  22218.91667824 -.01056050  00000+0 -92932-2 0  9994
2 52859  53.2175 155.4852 0003522   3.1253 331.2122 15.70708364  1309
STARLINK-4191           
1 52860U 22062AG  22219.25001157 -.01058620  00000+0 -96339-2 0  9995
2 52860  53.2173 153.8417 0001753 295.7313 122.8104 15.69937456  8482
STARLINK-4112           
1 52861U 22062AH  22218.91667824 -.01054537  00000+0 -92654-2 0  9996
2 52861  53.2175 155.4891 0003484   0.8726 336.5760 15.70742044  1300
STARLINK-4010           
1 52862U 22062AJ  22218.91667824 -.01056022  00000+0 -92912-2 0  9995
2 52862  53.2175 155.4856 0003315   4.8066 330.1532 15.70715305  1303
STARLINK-4270           
1 52863U 22062AK  22218.91667824 -.01056054  00000+0 -92840-2 0  9991
2 52863  53.2175 155.4876 0003746   1.4233 334.7809 15.70729073  1307
STARLINK-4267           
1 52864U 22062AL  22218.91667824 -.01056058  00000+0 -92868-2 0  9996
2 52864  53.2175 155.4864 0003736   1.4953 334.0868 15.70722164  1305
STARLINK-4274           
1 52865U 22062AM  22218.91667824 -.01055975  00000+0 -92750-2 0  9994
2 52865  53.2175 155.4886 0003220   5.6010 333.0913 15.70756561  1306
STARLINK-4272           
1 52866U 22062AN  22218.91667824 -.01055991  00000+0 -92833-2 0  9995
2 52866  53.2175 155.4880 0003200   5.7849 331.0413 15.70736059  1303
STARLINK-4126           
1 52867U 22062AP  22219.25001157 -.01062511  00000+0 -96381-2 0  9993
2 52867  53.2174 153.8530 0002599 310.7167 114.7558 15.70015345  8489
STARLINK-4261           
1 52868U 22062AQ  22218.91667824 -.01055955  00000+0 -92788-2 0  9996
2 52868  53.2175 155.4890 0002925   8.3720 329.6982 15.70749861  1305
STARLINK-4266           
1 52869U 22062AR  22218.91667824  .00012633  00000+0  94316-4 0  9991
2 52869  53.2128 155.4683 0003748   0.8273 344.6223 15.73193064  1304
STARLINK-4195           
1 52870U 22062AS  22218.91667824 -.01055968  00000+0 -92721-2 0  9990
2 52870  53.2175 155.4890 0003246   5.3694 333.9447 15.70763471  1309
STARLINK-4207           
1 52871U 22062AT  22218.91667824 -.00001431  00000+0 -57510-5 0  9996
2 52871  53.2148 155.4609 0003073  15.7720 331.3740 15.73222212  1305
STARLINK-4213           
1 52872U 22062AU  22219.25001157  .00085410  00000+0  60796-3 0  9991
2 52872  53.2139 153.8166 0002971   6.3310  68.5938 15.73151947  8483
STARLINK-4211           
1 52873U 22062AV  22219.58334491 -.00000807  00000+0 -13011-5 0  9997
2 52873  53.2145 152.1622 0003646   3.3399 162.9129 15.73192832  8539
STARLINK-4210           
1 52874U 22062AW  22219.58334491  .00038981  00000+0  28085-3 0  9995
2 52874  53.2145 152.1643 0003609   2.7124 161.7395 15.73196362  8535
STARLINK-4193           
1 52875U 22062AX  22219.58334491  .00040921  00000+0  29490-3 0  9994
2 52875  53.2145 152.1608 0003183   5.0531 161.8142 15.73169388  8531
STARLINK-4200           
1 52876U 22062AY  22219.58334491 -.00014869  00000+0 -10172-3 0  9996
2 52876  53.2145 152.1628 0003471   8.2286 157.4219 15.73183150  8535
STARLINK-4214           
1 52877U 22062AZ  22218.91667824 -.00024366  00000+0 -16947-3 0  9991
2 52877  53.2141 155.4564 0002871  11.9530 338.2693 15.73222093  1306
STARLINK-4171           
1 52878U 22062BA  22219.25001157  .00051021  00000+0  36645-3 0  9994
2 52878  53.2141 153.8108 0003495   7.9821  70.5894 15.73149332  8483
STARLINK-4139           
1 52879U 22062BB  22219.25001157  .00085966  00000+0  61134-3 0  9991
2 52879  53.2143 153.8054 0003254   7.0106  73.8568 15.73170421  8483
STARLINK-4186           
1 52880U 22062BC  22219.58334491 -.00039395  00000+0 -27753-3 0  9995
2 52880  53.2143 152.1549 0003087   8.0109 161.2358 15.73196697  8532
STARLINK-4192           
1 52881U 22062BD  22218.91667824  .00014121  00000+0  10501-3 0  9992
2 52881  53.2126 155.4566 0003286  10.3077 340.5041 15.73164914  1306
STARLINK-4181           
1 52882U 22062BE  22219.58334491  .00136375  00000+0  96440-3 0  9990
2 52882  53.2151 152.1518 0003209   4.4111 166.0150 15.73099004  8535
STARLINK-4260           
1 52986U 22076A   22219.58334491 -.00079553  00000+0 -56686-3 0  9994
2 52986  53.2166 226.0132 0002649  21.0826 354.5199 15.73231904  5388
STARLINK-4259           
1 52987U 22076B   22219.50891348 -.00431281  00000+0 -88951-2 0  9995
2 52987  53.2180 227.7223 0000696  60.4676 299.6402 15.46929448  5354
STARLINK-4291           
1 52988U 22076C   22219.50001157  .00072562  00000+0  51813-3 0  9996
2 52988  53.2168 226.4238 0002799  25.6084 238.9449 15.73144513  5376
